[
    {
        "Altitude(m)": 558585.9376211639,
        "Argument of Periapsis(deg)": 0.013245982221427002,
        "Eccentricity": 0.0,
        "Inclination(deg)": 53.0,
        "Latitude(deg)": -19.00228199000105,
        "Longitude(deg)": 38.379766861979846,
        "Mean Anomaly(deg)": -156.18041426484479,
        "RAAN(deg)": 304.9802867370561,
        "Satellite Name": "Starlink Shell 1 1353",
        "Satellite Number": 1353,
        "Semi-Major Axis(m)": 6931778.249405717,
        "Time(s)": 380
    },
    {
        "Altitude(m)": 558740.9787345218,
        "Argument of Periapsis(deg)": 0.013594560700938237,
        "Eccentricity": 0.0,
        "Inclination(deg)": 53.0,
        "Latitude(deg)": -19.48764522080229,
        "Longitude(deg)": 38.76028488054583,
        "Mean Anomaly(deg)": -155.55358306128812,
        "RAAN(deg)": 304.9797679669786,
        "Satellite Name": "Starlink Shell 1 1353",
        "Satellite Number": 1353,
        "Semi-Major Axis(m)": 6931778.249405717,
        "Time(s)": 390
    },
    {
        "Altitude(m)": 558897.5407345825,
        "Argument of Periapsis(deg)": 0.013943139180449475,
        "Eccentricity": 0.0,
        "Inclination(deg)": 53.0,
        "Latitude(deg)": -19.971980046178068,
        "Longitude(deg)": 39.14330655980599,
        "Mean Anomaly(deg)": -154.92675185773135,
        "RAAN(deg)": 304.9792491969011,
        "Satellite Name": "Starlink Shell 1 1353",
        "Satellite Number": 1353,
        "Semi-Major Axis(m)": 6931778.249405717,
        "Time(s)": 400
    },
    {
        "Altitude(m)": 559055.5695590903,
        "Argument of Periapsis(deg)": 0.014291717659960712,
        "Eccentricity": 0.0,
        "Inclination(deg)": 53.0,
        "Latitude(deg)": -20.455253384600777,
        "Longitude(deg)": 39.528909978288404,
        "Mean Anomaly(deg)": -154.29992065417466,
        "RAAN(deg)": 304.97873042682363,
        "Satellite Name": "Starlink Shell 1 1353",
        "Satellite Number": 1353,
        "Semi-Major Axis(m)": 6931778.249405717,
        "Time(s)": 410
    },
    {
        "Altitude(m)": 559215.0103424436,
        "Argument of Periapsis(deg)": 0.014640296139471948,
        "Eccentricity": 0.0,
        "Inclination(deg)": 53.0,
        "Latitude(deg)": -20.937431566539246,
        "Longitude(deg)": 39.91717374567296,
        "Mean Anomaly(deg)": -153.67308945061794,
        "RAAN(deg)": 304.97821165674617,
        "Satellite Name": "Starlink Shell 1 1353",
        "Satellite Number": 1353,
        "Semi-Major Axis(m)": 6931778.249405717,
        "Time(s)": 420
    },
    {
        "Altitude(m)": 559375.8074401292,
        "Argument of Periapsis(deg)": 0.014988874618983185,
        "Eccentricity": 0.0,
        "Inclination(deg)": 53.0,
        "Latitude(deg)": -21.41848031322789,
        "Longitude(deg)": 40.30817753120176,
        "Mean Anomaly(deg)": -153.04625824706127,
        "RAAN(deg)": 304.9776928866687,
        "Satellite Name": "Starlink Shell 1 1353",
        "Satellite Number": 1353,
        "Semi-Major Axis(m)": 6931778.249405717,
        "Time(s)": 430
    },
    {
        "Altitude(m)": 559537.9044535178,
        "Argument of Periapsis(deg)": 0.015337453098494424,
        "Eccentricity": 0.0,
        "Inclination(deg)": 53.0,
        "Latitude(deg)": -21.8983647149598,
        "Longitude(deg)": 40.70200259153997,
        "Mean Anomaly(deg)": -152.41942704350456,
        "RAAN(deg)": 304.97717411659124,
        "Satellite Name": "Starlink Shell 1 1353",
        "Satellite Number": 1353,
        "Semi-Major Axis(m)": 6931778.249405717,
        "Time(s)": 440
    },
    {
        "Altitude(m)": 559701.2442550424,
        "Argument of Periapsis(deg)": 0.01568603157800566,
        "Eccentricity": 0.0,
        "Inclination(deg)": 53.0,
        "Latitude(deg)": -22.377049208897134,
        "Longitude(deg)": 41.09873078513844,
        "Mean Anomaly(deg)": -151.79259583994778,
        "RAAN(deg)": 304.9766553465137,
        "Satellite Name": "Starlink Shell 1 1353",
        "Satellite Number": 1353,
        "Semi-Major Axis(m)": 6931778.249405717,
        "Time(s)": 450
    },
    {
        "Altitude(m)": 559865.7690137118,
        "Argument of Periapsis(deg)": 0.0160346100575169,
        "Eccentricity": 0.0,
        "Inclination(deg)": 53.0,
        "Latitude(deg)": -22.854497556386963,
        "Longitude(deg)": 41.498445098762105,
        "Mean Anomaly(deg)": -151.16576463639112,
        "RAAN(deg)": 304.97613657643626,
        "Satellite Name": "Starlink Shell 1 1353",
        "Satellite Number": 1353,
        "Semi-Major Axis(m)": 6931778.249405717,
        "Time(s)": 460
    },
    {
        "Altitude(m)": 560031.4202209573,
        "Argument of Periapsis(deg)": 0.016383188537028134,
        "Eccentricity": 0.0,
        "Inclination(deg)": 53.0,
        "Latitude(deg)": -23.330672819777433,
        "Longitude(deg)": 41.901230173220384,
        "Mean Anomaly(deg)": -150.53893343283437,
        "RAAN(deg)": 304.9756178063588,
        "Satellite Name": "Starlink Shell 1 1353",
        "Satellite Number": 1353,
        "Semi-Major Axis(m)": 6931778.249405717,
        "Time(s)": 470
    },
    {
        "Altitude(m)": 560198.1387167909,
        "Argument of Periapsis(deg)": 0.01673176701653937,
        "Eccentricity": 0.0,
        "Inclination(deg)": 53.0,
        "Latitude(deg)": -23.80553733872952,
        "Longitude(deg)": 42.30717131532892,
        "Mean Anomaly(deg)": -149.9121022292777,
        "RAAN(deg)": 304.97509903628134,
        "Satellite Name": "Starlink Shell 1 1353",
        "Satellite Number": 1353,
        "Semi-Major Axis(m)": 6931778.249405717,
        "Time(s)": 480
    },
    {
        "Altitude(m)": 560365.8647162953,
        "Argument of Periapsis(deg)": 0.017080345496050607,
        "Eccentricity": 0.0,
        "Inclination(deg)": 53.0,
        "Latitude(deg)": -24.279052706016333,
        "Longitude(deg)": 42.71635502174493,
        "Mean Anomaly(deg)": -149.28527102572093,
        "RAAN(deg)": 304.9745802662038,
        "Satellite Name": "Starlink Shell 1 1353",
        "Satellite Number": 1353,
        "Semi-Major Axis(m)": 6931778.249405717,
        "Time(s)": 490
    },
    {
        "Altitude(m)": 560534.5378363847,
        "Argument of Periapsis(deg)": 0.017428923975561842,
        "Eccentricity": 0.0,
        "Inclination(deg)": 53.0,
        "Latitude(deg)": -24.751179742806322,
        "Longitude(deg)": 43.128869501686324,
        "Mean Anomaly(deg)": -148.6584398221643,
        "RAAN(deg)": 304.97406149612635,
        "Satellite Name": "Starlink Shell 1 1353",
        "Satellite Number": 1353,
        "Semi-Major Axis(m)": 6931778.249405717,
        "Time(s)": 500
    },
    {
        "Altitude(m)": 560704.0971228596,
        "Argument of Periapsis(deg)": 0.01777750245507308,
        "Eccentricity": 0.0,
        "Inclination(deg)": 53.0,
        "Latitude(deg)": -25.221878473432085,
        "Longitude(deg)": 43.544803685542256,
        "Mean Anomaly(deg)": -148.03160861860752,
        "RAAN(deg)": 304.97354272604895,
        "Satellite Name": "Starlink Shell 1 1353",
        "Satellite Number": 1353,
        "Semi-Major Axis(m)": 6931778.249405717,
        "Time(s)": 510
    },
    {
        "Altitude(m)": 560874.4810777159,
        "Argument of Periapsis(deg)": 0.018126080934584315,
        "Eccentricity": 0.0,
        "Inclination(deg)": 53.0,
        "Latitude(deg)": -25.691108099636388,
        "Longitude(deg)": 43.96424774498427,
        "Mean Anomaly(deg)": -147.40477741505083,
        "RAAN(deg)": 304.9730239559714,
        "Satellite Name": "Starlink Shell 1 1353",
        "Satellite Number": 1353,
        "Semi-Major Axis(m)": 6931778.249405717,
        "Time(s)": 520
    },
    {
        "Altitude(m)": 561045.6276867216,
        "Argument of Periapsis(deg)": 0.018474659414095554,
        "Eccentricity": 0.0,
        "Inclination(deg)": 53.0,
        "Latitude(deg)": -26.158826974300467,
        "Longitude(deg)": 44.38729361156544,
        "Mean Anomaly(deg)": -146.7779462114941,
        "RAAN(deg)": 304.97250518589397,
        "Satellite Name": "Starlink Shell 1 1353",
        "Satellite Number": 1353,
        "Semi-Major Axis(m)": 6931778.249405717,
        "Time(s)": 530
    },
    {
        "Altitude(m)": 561217.4744472079,
        "Argument of Periapsis(deg)": 0.018823237893606792,
        "Eccentricity": 0.0,
        "Inclination(deg)": 53.0,
        "Latitude(deg)": -26.624992574657156,
        "Longitude(deg)": 44.81403398077892,
        "Mean Anomaly(deg)": -146.15111500793745,
        "RAAN(deg)": 304.97198641581645,
        "Satellite Name": "Starlink Shell 1 1353",
        "Satellite Number": 1353,
        "Semi-Major Axis(m)": 6931778.249405717,
        "Time(s)": 540
    },
    {
        "Altitude(m)": 561389.9583961265,
        "Argument of Periapsis(deg)": 0.019171816373118027,
        "Eccentricity": 0.0,
        "Inclination(deg)": 53.0,
        "Latitude(deg)": -27.08956147498933,
        "Longitude(deg)": 45.244562827158475,
        "Mean Anomaly(deg)": -145.52428380438067,
        "RAAN(deg)": 304.971467645739,
        "Satellite Name": "Starlink Shell 1 1353",
        "Satellite Number": 1353,
        "Semi-Major Axis(m)": 6931778.249405717,
        "Time(s)": 550
    },
    {
        "Altitude(m)": 561563.0161382628,
        "Argument of Periapsis(deg)": 0.019520394852629266,
        "Eccentricity": 0.0,
        "Inclination(deg)": 53.0,
        "Latitude(deg)": -27.552489318821262,
        "Longitude(deg)": 45.678975917368355,
        "Mean Anomaly(deg)": -144.89745260082395,
        "RAAN(deg)": 304.9709488756616,
        "Satellite Name": "Starlink Shell 1 1353",
        "Satellite Number": 1353,
        "Semi-Major Axis(m)": 6931778.249405717,
        "Time(s)": 560
    }
]